start=new Date('2022-02-12T00:00:00.000Z').valueOf();
sats=[{"MEAN_MOTION_DDOT":"0.0000000000000","INCLINATION":"53.2186","TLE_LINE2":"2 50162  53.2186  92.2987 0005299  35.4732 324.6643 15.79761823 12030","MEAN_MOTION_DOT":"0.00081606","SITE":"AFWTR","SEMIMAJOR_AXIS":"6709.252","CENTER_NAME":"EARTH","TIME_SYSTEM":"UTC","ARG_OF_PERICENTER":"35.4732","BSTAR":"0.00043432000000","REV_AT_EPOCH":"1203","COUNTRY_CODE":"US","RA_OF_ASC_NODE":"92.2987","DECAY_DATE":null,"PERIOD":"91.153","MEAN_ELEMENT_THEORY":"SGP4","ELEMENT_SET_NO":"999","GP_ID":"195755127","TLE_LINE1":"1 50162U 21125G   22042.55158365  .00081606  00000-0  43432-3 0  9993","LAUNCH_DATE":"2021-12-18","RCS_SIZE":"LARGE","EPHEMERIS_TYPE":"0","NORAD_CAT_ID":"50162","CLASSIFICATION_TYPE":"U","MEAN_ANOMALY":"324.6643","EPOCH":"2022-02-11T13:14:16.827360","PERIAPSIS":"327.562","ECCENTRICITY":"0.00052990","OBJECT_NAME":"STARLINK-3303","MEAN_MOTION":"15.79761823","REF_FRAME":"TEME","APOAPSIS":"334.672","OBJECT_TYPE":"PAYLOAD","OBJECT_ID":"2021-125G","FILE":"3297735"},{"RA_OF_ASC_NODE":"91.8698","DECAY_DATE":null,"PERIOD":"92.063","ELEMENT_SET_NO":"999","GP_ID":"195760762","MEAN_ELEMENT_THEORY":"SGP4","BSTAR":"-0.00324590000000","REV_AT_EPOCH":"1154","COUNTRY_CODE":"US","SEMIMAJOR_AXIS":"6753.844","CENTER_NAME":"EARTH","TIME_SYSTEM":"UTC","ARG_OF_PERICENTER":"37.3213","INCLINATION":"53.2176","MEAN_MOTION_DDOT":"0.0000000000000","MEAN_MOTION_DOT":"-0.00303023","SITE":"AFWTR","TLE_LINE2":"2 50163  53.2176  91.8698 0001638  37.3213 256.0488 15.64142192 11548","APOAPSIS":"376.815","OBJECT_TYPE":"PAYLOAD","OBJECT_ID":"2021-125H","FILE":"3297928","MEAN_MOTION":"15.64142192","REF_FRAME":"TEME","EPOCH":"2022-02-11T22:00:01.999584","MEAN_ANOMALY":"256.0488","OBJECT_NAME":"STARLINK-3306","PERIAPSIS":"374.603","ECCENTRICITY":"0.00016380","TLE_LINE1":"1 50163U 21125H   22042.91668981 -.00303023  00000-0 -32459-2 0  9992","LAUNCH_DATE":"2021-12-18","NORAD_CAT_ID":"50163","CLASSIFICATION_TYPE":"U","RCS_SIZE":"LARGE","EPHEMERIS_TYPE":"0"},{"ARG_OF_PERICENTER":"14.2405","TIME_SYSTEM":"UTC","SEMIMAJOR_AXIS":"6727.764","CENTER_NAME":"EARTH","SITE":"AFWTR","MEAN_MOTION_DOT":"-0.00036381","TLE_LINE2":"2 50164  53.2159  91.4995 0003127  14.2405 121.4207 15.73245919 11543","INCLINATION":"53.2159","MEAN_MOTION_DDOT":"0.0000000000000","GP_ID":"195760939","ELEMENT_SET_NO":"999","MEAN_ELEMENT_THEORY":"SGP4","DECAY_DATE":null,"PERIOD":"91.531","RA_OF_ASC_NODE":"91.4995","REV_AT_EPOCH":"1154","COUNTRY_CODE":"US","BSTAR":"-0.00025532000000","PERIAPSIS":"347.525","OBJECT_NAME":"STARLINK-3307","ECCENTRICITY":"0.00031270","MEAN_ANOMALY":"121.4207","EPOCH":"2022-02-11T22:00:01.999584","CLASSIFICATION_TYPE":"U","NORAD_CAT_ID":"50164","RCS_SIZE":"LARGE","EPHEMERIS_TYPE":"0","LAUNCH_DATE":"2021-12-18","TLE_LINE1":"1 50164U 21125J   22042.91668981 -.00036381  00000-0 -25532-3 0  9998","FILE":"3297930","OBJECT_ID":"2021-125J","OBJECT_TYPE":"PAYLOAD","APOAPSIS":"351.733","REF_FRAME":"TEME","MEAN_MOTION":"15.73245919"},{"MEAN_MOTION_DDOT":"0.0000000000000","INCLINATION":"53.2175","TLE_LINE2":"2 50165  53.2175  95.2289 0001679  36.7357  52.8277 15.35355953  8891","MEAN_MOTION_DOT":"-0.00658843","SITE":"AFWTR","CENTER_NAME":"EARTH","SEMIMAJOR_AXIS":"6838.000","TIME_SYSTEM":"UTC","ARG_OF_PERICENTER":"36.7357","BSTAR":"-0.02034300000000","COUNTRY_CODE":"US","REV_AT_EPOCH":"889","RA_OF_ASC_NODE":"95.2289","PERIOD":"93.789","DECAY_DATE":null,"MEAN_ELEMENT_THEORY":"SGP4","ELEMENT_SET_NO":"999","GP_ID":"195760936","TLE_LINE1":"1 50165U 21125K   22042.91668981 -.00658843  00000-0 -20343-1 0  9995","LAUNCH_DATE":"2021-12-18","EPHEMERIS_TYPE":"0","RCS_SIZE":"LARGE","NORAD_CAT_ID":"50165","CLASSIFICATION_TYPE":"U","EPOCH":"2022-02-11T22:00:01.999584","MEAN_ANOMALY":"52.8277","ECCENTRICITY":"0.00016790","PERIAPSIS":"458.717","OBJECT_NAME":"STARLINK-3298","MEAN_MOTION":"15.35355953","REF_FRAME":"TEME","APOAPSIS":"461.014","OBJECT_ID":"2021-125K","OBJECT_TYPE":"PAYLOAD","FILE":"3297930"},{"TLE_LINE2":"2 50166  53.2175  91.6175 0001033  66.7837 344.2842 15.64983899  8935","MEAN_MOTION_DOT":"-0.00657240","SITE":"AFWTR","MEAN_MOTION_DDOT":"0.0000000000000","INCLINATION":"53.2175","TIME_SYSTEM":"UTC","ARG_OF_PERICENTER":"66.7837","SEMIMAJOR_AXIS":"6751.422","CENTER_NAME":"EARTH","COUNTRY_CODE":"US","REV_AT_EPOCH":"893","BSTAR":"-0.00711380000000","MEAN_ELEMENT_THEORY":"SGP4","ELEMENT_SET_NO":"999","GP_ID":"195760985","RA_OF_ASC_NODE":"91.6175","PERIOD":"92.014","DECAY_DATE":null,"RCS_SIZE":"LARGE","EPHEMERIS_TYPE":"0","NORAD_CAT_ID":"50166","CLASSIFICATION_TYPE":"U","TLE_LINE1":"1 50166U 21125L   22042.91668981 -.00657240  00000-0 -71138-2 0  9995","LAUNCH_DATE":"2021-12-18","MEAN_ANOMALY":"344.2842","EPOCH":"2022-02-11T22:00:01.999584","PERIAPSIS":"372.590","ECCENTRICITY":"0.00010330","OBJECT_NAME":"STARLINK-3305","REF_FRAME":"TEME","MEAN_MOTION":"15.64983899","OBJECT_ID":"2021-125L","OBJECT_TYPE":"PAYLOAD","FILE":"3297933","APOAPSIS":"373.984"},{"ARG_OF_PERICENTER":"35.2989","TIME_SYSTEM":"UTC","CENTER_NAME":"EARTH","SEMIMAJOR_AXIS":"6837.317","SITE":"AFWTR","MEAN_MOTION_DOT":"-0.00658495","TLE_LINE2":"2 50167  53.2175  95.2271 0001771  35.2989  78.4899 15.35586097 11503","INCLINATION":"53.2175","MEAN_MOTION_DDOT":"0.0000000000000","GP_ID":"195761001","ELEMENT_SET_NO":"999","MEAN_ELEMENT_THEORY":"SGP4","DECAY_DATE":null,"PERIOD":"93.775","RA_OF_ASC_NODE":"95.2271","COUNTRY_CODE":"US","REV_AT_EPOCH":"1150","BSTAR":"-0.02018100000000","PERIAPSIS":"457.971","ECCENTRICITY":"0.00017710","OBJECT_NAME":"STARLINK-3271","MEAN_ANOMALY":"78.4899","EPOCH":"2022-02-11T22:00:01.999584","CLASSIFICATION_TYPE":"U","NORAD_CAT_ID":"50167","RCS_SIZE":"LARGE","EPHEMERIS_TYPE":"0","TLE_LINE1":"1 50167U 21125M   22042.91668981 -.00658495  00000-0 -20181-1 0  9990","LAUNCH_DATE":"2021-12-18","FILE":"3297937","OBJECT_TYPE":"PAYLOAD","OBJECT_ID":"2021-125M","APOAPSIS":"460.393","REF_FRAME":"TEME","MEAN_MOTION":"15.35586097"},{"EPOCH":"2022-02-11T14:00:01.000224","MEAN_ANOMALY":"252.3981","PERIAPSIS":"370.902","OBJECT_NAME":"STARLINK-3296","ECCENTRICITY":"0.00010580","LAUNCH_DATE":"2021-12-18","TLE_LINE1":"1 50168U 21125N   22042.58334491 -.00655939  00000-0 -69347-2 0  9998","NORAD_CAT_ID":"50168","CLASSIFICATION_TYPE":"U","RCS_SIZE":"LARGE","EPHEMERIS_TYPE":"0","APOAPSIS":"372.331","OBJECT_TYPE":"PAYLOAD","OBJECT_ID":"2021-125N","FILE":"3297735","MEAN_MOTION":"15.65564902","REF_FRAME":"TEME","SEMIMAJOR_AXIS":"6749.752","CENTER_NAME":"EARTH","TIME_SYSTEM":"UTC","ARG_OF_PERICENTER":"82.4862","INCLINATION":"53.2175","MEAN_MOTION_DDOT":"0.0000000000000","MEAN_MOTION_DOT":"-0.00655939","SITE":"AFWTR","TLE_LINE2":"2 50168  53.2175  93.2499 0001058  82.4862 252.3981 15.65564902  3708","RA_OF_ASC_NODE":"93.2499","PERIOD":"91.980","DECAY_DATE":null,"ELEMENT_SET_NO":"999","GP_ID":"195754627","MEAN_ELEMENT_THEORY":"SGP4","BSTAR":"-0.00693470000000","REV_AT_EPOCH":"370","COUNTRY_CODE":"US"},{"TLE_LINE1":"1 50169U 21125P   22042.91668981 -.00657009  00000-0 -68204-2 0  9991","LAUNCH_DATE":"2021-12-18","NORAD_CAT_ID":"50169","CLASSIFICATION_TYPE":"U","RCS_SIZE":"LARGE","EPHEMERIS_TYPE":"0","EPOCH":"2022-02-11T22:00:01.999584","MEAN_ANOMALY":"16.1642","OBJECT_NAME":"STARLINK-3301","PERIAPSIS":"369.570","ECCENTRICITY":"0.00010950","MEAN_MOTION":"15.66019981","REF_FRAME":"TEME","APOAPSIS":"371.048","OBJECT_ID":"2021-125P","OBJECT_TYPE":"PAYLOAD","FILE":"3297937","INCLINATION":"53.2175","MEAN_MOTION_DDOT":"0.0000000000000","MEAN_MOTION_DOT":"-0.00657009","SITE":"AFWTR","TLE_LINE2":"2 50169  53.2175  91.6045 0001095  63.8716  16.1642 15.66019981  8933","CENTER_NAME":"EARTH","SEMIMAJOR_AXIS":"6748.444","TIME_SYSTEM":"UTC","ARG_OF_PERICENTER":"63.8716","BSTAR":"-0.00682040000000","REV_AT_EPOCH":"893","COUNTRY_CODE":"US","RA_OF_ASC_NODE":"91.6045","PERIOD":"91.953","DECAY_DATE":null,"ELEMENT_SET_NO":"999","GP_ID":"195760999","MEAN_ELEMENT_THEORY":"SGP4"},{"REF_FRAME":"TEME","MEAN_MOTION":"15.65795230","FILE":"3297735","OBJECT_TYPE":"PAYLOAD","OBJECT_ID":"2021-125Q","APOAPSIS":"371.671","EPHEMERIS_TYPE":"0","RCS_SIZE":"LARGE","CLASSIFICATION_TYPE":"U","NORAD_CAT_ID":"50170","TLE_LINE1":"1 50170U 21125Q   22042.58334491 -.00656065  00000-0 -68720-2 0  9996","LAUNCH_DATE":"2021-12-18","PERIAPSIS":"370.238","ECCENTRICITY":"0.00010620","OBJECT_NAME":"STARLINK-3245","MEAN_ANOMALY":"260.9381","EPOCH":"2022-02-11T14:00:01.000224","REV_AT_EPOCH":"370","COUNTRY_CODE":"US","BSTAR":"-0.00687200000000","MEAN_ELEMENT_THEORY":"SGP4","GP_ID":"195755128","ELEMENT_SET_NO":"999","PERIOD":"91.966","DECAY_DATE":null,"RA_OF_ASC_NODE":"93.2473","TLE_LINE2":"2 50170  53.2175  93.2473 0001062  80.2775 260.9381 15.65795230  3706","SITE":"AFWTR","MEAN_MOTION_DOT":"-0.00656065","MEAN_MOTION_DDOT":"0.0000000000000","INCLINATION":"53.2175","ARG_OF_PERICENTER":"80.2775","TIME_SYSTEM":"UTC","SEMIMAJOR_AXIS":"6749.090","CENTER_NAME":"EARTH"},{"TIME_SYSTEM":"UTC","ARG_OF_PERICENTER":"73.3877","CENTER_NAME":"EARTH","SEMIMAJOR_AXIS":"6749.736","MEAN_MOTION_DOT":"0.00121258","SITE":"AFWTR","TLE_LINE2":"2 50171  53.2155  91.6447 0001530  73.3877 334.9322 15.65570399 11549","INCLINATION":"53.2155","MEAN_MOTION_DDOT":"0.0000000000000","ELEMENT_SET_NO":"999","GP_ID":"195761003","MEAN_ELEMENT_THEORY":"SGP4","RA_OF_ASC_NODE":"91.6447","PERIOD":"91.979","DECAY_DATE":null,"COUNTRY_CODE":"US","REV_AT_EPOCH":"1154","BSTAR":"0.00117280000000","EPOCH":"2022-02-11T22:00:01.999584","MEAN_ANOMALY":"334.9322","PERIAPSIS":"370.568","ECCENTRICITY":"0.00015300","OBJECT_NAME":"STARLINK-3286","NORAD_CAT_ID":"50171","CLASSIFICATION_TYPE":"U","RCS_SIZE":"LARGE","EPHEMERIS_TYPE":"0","TLE_LINE1":"1 50171U 21125R   22042.91668981  .00121258  00000-0  11728-2 0  9993","LAUNCH_DATE":"2021-12-18","OBJECT_TYPE":"PAYLOAD","OBJECT_ID":"2021-125R","FILE":"3297937","APOAPSIS":"372.634","REF_FRAME":"TEME","MEAN_MOTION":"15.65570399"}];
